{
    "links": {
        "self": "http://www.neowsapp.com/rest/v1/neo/3773049?api_key=iIulBulltgU6a56xZRHN4H3l9WmuAYTsLGpBGhQ2"
    },
    "id": "3773049",
    "neo_reference_id": "3773049",
    "name": "(2017 FP102)",
    "designation": "2017 FP102",
    "nasa_jpl_url": "http://ssd.jpl.nasa.gov/sbdb.cgi?sstr=3773049",
    "absolute_magnitude_h": 24.0,
    "estimated_diameter": {
        "kilometers": {
            "estimated_diameter_min": 0.0421264611,
            "estimated_diameter_max": 0.0941976306
        },
        "meters": {
            "estimated_diameter_min": 42.1264610556,
            "estimated_diameter_max": 94.1976305719
        },
        "miles": {
            "estimated_diameter_min": 0.0261761612,
            "estimated_diameter_max": 0.0585316759
        },
        "feet": {
            "estimated_diameter_min": 138.2101784897,
            "estimated_diameter_max": 309.0473542854
        }
    },
    "is_potentially_hazardous_asteroid": false,
    "close_approach_data": [
        {
            "close_approach_date": "2014-05-29",
            "close_approach_date_full": "2014-May-29 23:46",
            "epoch_date_close_approach": 1401407160000,
            "relative_velocity": {
                "kilometers_per_second": "10.842199788",
                "kilometers_per_hour": "39031.9192366308",
                "miles_per_hour": "24252.9167056721"
            },
            "miss_distance": {
                "astronomical": "0.2849307085",
                "lunar": "110.8380456065",
                "kilometers": "42625027.089190895",
                "miles": "26485963.662768551"
            },
            "orbiting_body": "Earth"
        },
        {
            "close_approach_date": "2017-04-28",
            "close_approach_date_full": "2017-Apr-28 12:41",
            "epoch_date_close_approach": 1493383260000,
            "relative_velocity": {
                "kilometers_per_second": "5.0748542219",
                "kilometers_per_hour": "18269.4751987746",
                "miles_per_hour": "11351.9414089274"
            },
            "miss_distance": {
                "astronomical": "0.1174361037",
                "lunar": "45.6826443393",
                "kilometers": "17568190.974619119",
                "miles": "10916367.6729330822"
            },
            "orbiting_body": "Earth"
        },
        {
            "close_approach_date": "2020-04-02",
            "close_approach_date_full": "2020-Apr-02 22:10",
            "epoch_date_close_approach": 1585865400000,
            "relative_velocity": {
                "kilometers_per_second": "13.7641997505",
                "kilometers_per_hour": "49551.1191019703",
                "miles_per_hour": "30789.1384219993"
            },
            "miss_distance": {
                "astronomical": "0.3936404486",
                "lunar": "153.1261345054",
                "kilometers": "58887772.656404482",
                "miles": "36591165.1738145716"
            },
            "orbiting_body": "Earth"
        }
    ],
    "orbital_data": {
        "orbit_id": "7",
        "orbit_determination_date": "2017-04-27 06:19:53",
        "first_observation_date": "2017-03-27",
        "last_observation_date": "2017-04-26",
        "data_arc_in_days": 30,
        "observations_used": 40,
        "orbit_uncertainty": "7",
        "minimum_orbit_intersection": ".10554",
        "jupiter_tisserand_invariant": "3.647",
        "epoch_osculation": "2459000.5",
        "eccentricity": ".4590664161927105",
        "semi_major_axis": "2.056255683522004",
        "inclination": "2.341643294793817",
        "ascending_node_longitude": "246.6111898372556",
        "orbital_period": "1076.996025026629",
        "perihelion_distance": "1.112297756111665",
        "perihelion_argument": "334.3178497716517",
        "aphelion_distance": "3.000213610932342",
        "perihelion_time": "2458949.429817594658",
        "mean_anomaly": "17.07087606518182",
        "mean_motion": ".3342630721326005",
        "equinox": "J2000",
        "orbit_class": {
            "orbit_class_type": "AMO",
            "orbit_class_description": "Near-Earth asteroid orbits similar to that of 1221 Amor",
            "orbit_class_range": "1.017 AU < q (perihelion) < 1.3 AU"
        }
    },
    "is_sentry_object": false
}